[{"OBJECT_NAME":"TRANSPORTER-11 OBJECT A","OBJECT_ID":"2024-149A","EPOCH":"2026-03-09T17:54:54.302112","MEAN_MOTION":15.31141332,"ECCENTRICITY":0.00031096,"INCLINATION":97.378,"RA_OF_ASC_NODE":149.0949,"ARG_OF_PERICENTER":191.001,"MEAN_ANOMALY":169.1164,"EPHEMERIS_TYPE":0,"CLASSIFICATION_TYPE":"U","NORAD_CAT_ID":60468,"ELEMENT_SET_NO":999,"REV_AT_EPOCH":8683,"BSTAR":0.00036053677,"MEAN_MOTION_DOT":0.00010774,"MEAN_MOTION_DDOT":0},{"OBJECT_NAME":"STARLINK-35258","OBJECT_ID":"2025-223H","EPOCH":"2026-03-09T21:20:01.755744","MEAN_MOTION":15.30184505,"ECCENTRICITY":0.00017066,"INCLINATION":53.1588,"RA_OF_ASC_NODE":293.4324,"ARG_OF_PERICENTER":41.0771,"MEAN_ANOMALY":319.0358,"EPHEMERIS_TYPE":0,"CLASSIFICATION_TYPE":"U","NORAD_CAT_ID":65861,"ELEMENT_SET_NO":999,"REV_AT_EPOCH":2423,"BSTAR":0.00069376487,"MEAN_MOTION_DOT":0.00020234,"MEAN_MOTION_DDOT":0}]
